#aV2022  2  4  0  0  0.00000000     288 DD+AD WGS84 FIT  NGA
## 2195 432000.00000000   300.00000000 59614 0.0000000000000
+   32     1  2  3  4  5  6  7  8  9 10 11 12 13 14 15 16 17
+         18 19 20 21 22 23 24 25 26 27 28 29 30 31 32  0  0
+          0  0  0  0  0  0  0  0  0  0  0  0  0  0  0  0  0
+          0  0  0  0  0  0  0  0  0  0  0  0  0  0  0  0  0
+          0  0  0  0  0  0  0  0  0  0  0  0  0  0  0  0  0
++         2  2  2  2  2  2  2  2  2  2  2  2  2  2  2  2  2
++         2  2  2  2  2  2  2  2  2  2  2  2  2  2  2  0  0
++         0  0  0  0  0  0  0  0  0  0  0  0  0  0  0  0  0
++         0  0  0  0  0  0  0  0  0  0  0  0  0  0  0  0  0
++         0  0  0  0  0  0  0  0  0  0  0  0  0  0  0  0  0
%c cc cc ccc ccc cccc cccc cccc cccc ccccc ccccc ccccc ccccc
%c cc cc ccc ccc cccc cccc cccc cccc ccccc ccccc ccccc ccccc
%f  0.0000000  0.000000000  0.00000000000  0.000000000000000
%f  0.0000000  0.000000000  0.00000000000  0.000000000000000
%i    0    0    0    0      0      0      0      0         0
%i    0    0    0    0      0      0      0      0         0
/*      NGA, ST. LOUIS,MO.                                  
/*   EPHEMERIS COMPUTED FROM 2 DAYS OF DATA                 
/*   EPOCHA v7 SMOOTHER                                     
/*   G2139 IERS2010 SATIGS SATAPC                           
*  2022  2  4 16 50  0.00000000
P  1 -15466.080700 -13382.727650 -17413.944961    439.824494                    
V  1  21343.071419   1501.015801 -20102.770491     -0.095980                    
P  2  -7797.059407  14646.329539  21429.872976   -650.209628                    
V  2 -25626.022182  -1245.618936  -8626.953992     -0.007815                    
P  3 -13113.870074 -22810.616819   3925.832804   -106.730596                    
V  3     54.606316  -5599.420127 -31426.682178     -0.164819                    
P  4  -6738.159144 -15017.789459  20831.499383   -191.449393                    
V  4  16918.938387 -20361.712631  -9287.346325      0.021056                    
P  5   3378.685717  23873.705765  10806.474644    -70.277488                    
V  5  -8589.745149 -11389.000281  27583.298178     -0.013222                    
P  6 -22409.634605   6224.481255  12963.534491    191.289154                    
V  6 -16016.180397  -3295.975398 -26174.877498      0.115948                    
P  7 -25793.776017  -6090.317855   4538.853429    307.741392                    
V  7   5476.382127  -2028.589347  30522.102366      0.030542                    
P  8   2173.483153 -21546.626882 -15160.824437    -54.849643                    
V  8  12791.679610 -14666.899204  23050.783485     -0.014858                    
P  9 -15473.969809  -3992.672984  21147.613970   -355.514806                    
V  9  14933.203862 -22546.539259   6615.512511      0.014689                    
P 10  15394.622585  -1493.453292 -21487.752991   -311.455781                    
V 10  10988.965161  25254.823863   5792.169766     -0.101654                    
P 11  -9861.552566  13152.104859  20857.556610   -100.291091                    
V 11 -26024.751281  -5004.686636  -9160.149839      0.135762                    
P 12   9863.042829  24695.381703   1217.906236   -166.053077                    
V 12  -1629.967376   2568.935745 -31829.628288     -0.056764                    
P 13 -10997.158042  21838.670964 -10325.517692    256.320317                    
V 13 -10613.531155   7744.906936  28257.535116      0.061633                    
P 14 -15945.481138    701.255730 -21243.414193    -79.791946                    
V 14  -9470.737105 -25266.734308   6210.139335     -0.047956                    
P 15   1296.290628  21653.630953 -15517.545437    -86.357619                    
V 15 -11615.132684  15530.503525  21582.164278      0.028816                    
P 16   2132.070078 -22361.289940  13527.603123   -465.084961                    
V 16   8007.865731  16061.488957  25258.524828     -0.050729                    
P 17 -20163.397609  10214.367726 -13550.771990    570.686282                    
V 17   9950.647777 -14975.366405 -25243.666183      0.051724                    
P 18  25720.033899   5748.189962   3711.219170    247.123848                    
V 18  -4956.319655   1801.658096  31438.844976     -0.078298                    
P 19 -20398.079122  15328.740222  -7286.489709    114.571672                    
V 19   4331.958455  -8119.516569 -30463.265985      0.049926                    
P 20  -3487.167104  19076.399930  18253.155636    516.854354                    
V 20 -13976.865402 -18537.654869  16449.676118     -0.001829                    
P 21  -6090.004926 -14676.402366 -20706.190548    157.455957                    
V 21  27770.712376    181.118165  -7427.339102      0.006911                    
P 22  18812.506805 -18199.279265  -3469.357995    208.655321                    
V 22   -955.182335   5660.195840 -31486.741971      0.055606                    
P 23  17822.749111  10243.388020 -16883.089985      4.461575                    
V 23   7797.591589  19952.090504  20258.673195     -0.036227                    
P 24  11661.602088  14596.467593 -19315.585557    275.918172                    
V 24 -23900.516457    705.689028 -13699.483526     -0.013049                    
P 25  16700.047418  17095.898713  11601.996086    280.806314                    
V 25   4090.770265  14692.182678 -26607.813826      0.054386                    
P 26  10238.673375 -13093.800849  20577.431700    180.390583                    
V 26  13010.021814  23065.912695   8478.740205      0.032843                    
P 27  11364.983595 -22986.206901  -6263.091642    104.076175                    
V 27   6663.801171  -4779.836409  30958.292549      0.179295                    
P 28 -12043.722491   9632.892000 -21133.001537    407.594616                    
V 28  -9427.360524 -26379.051578  -6274.995646     -0.081373                    
P 29  12851.153575   7501.216614  21961.158316   -476.041404                    
V 29 -17874.715139  21450.197821   3072.968828     -0.047489                    
P 30 -26226.375451    385.310768  -4870.845812   -511.294845                    
V 30  -5798.395539  -4056.342959  30220.339470     -0.024299                    
P 31  21204.314027  -7524.637158  14349.276580   -163.176910                    
V 31  17864.452319   4282.169513 -23483.687035     -0.017776                    
P 32  19471.814271 -14182.978305 -10847.577918    -61.917753                    
V 32  -5958.971854  12985.769364 -27543.568798     -0.065178                    
EOF
